#cP2023  6 25  0  0  0.00000000      96 ORBIT IGS20 HLM  IGS
## 2268      0.00000000   900.00000000 60120 0.0000000000000
+   32   G01G02G03G04G05G06G07G08G09G10G11G12G13G14G15G16G17
+        G18G19G20G21G22G23G24G25G26G27G28G29G30G31G32  0  0
+          0  0  0  0  0  0  0  0  0  0  0  0  0  0  0  0  0
+          0  0  0  0  0  0  0  0  0  0  0  0  0  0  0  0  0
+          0  0  0  0  0  0  0  0  0  0  0  0  0  0  0  0  0
++         2  2  3  2  2  2  1  2  2  2  2  2  2  2  2  2  2
++         2  2  2  2  2  2  2  2  2  2  2  2  2  1  2  0  0
++         0  0  0  0  0  0  0  0  0  0  0  0  0  0  0  0  0
++         0  0  0  0  0  0  0  0  0  0  0  0  0  0  0  0  0
++         0  0  0  0  0  0  0  0  0  0  0  0  0  0  0  0  0
%c G  cc GPS ccc cccc cccc cccc cccc ccccc ccccc ccccc ccccc
%c cc cc ccc ccc cccc cccc cccc cccc ccccc ccccc ccccc ccccc
%f  1.2500000  1.025000000  0.00000000000  0.000000000000000
%f  0.0000000  0.000000000  0.00000000000  0.000000000000000
%i    0    0    0    0      0      0      0      0         0
%i    0    0    0    0      0      0      0      0         0
/* RAPID ORBIT COMBINATION FROM WEIGHTED AVERAGE OF:        
/* cod emr esa gfz grg jpl ngs sio usn whu                  
/* REFERENCED TO IGS TIME (IGST) AND TO WEIGHTED MEAN POLE: 
/* PCV:IGS20_2233 OL/AL:FES2014b NONE     Y  ORB:CMB CLK:CMB
*  2023  6 25 11 15  0.00000000
PG01  14125.850145 -20647.003908   8037.300977    176.301392  4  5  2  86       
PG02  15323.013925 -16448.112118  14530.985600   -582.452262  5  4  4  76       
PG03  18270.551038 -12697.391138 -14551.210146   -257.590727  6  7  7  61       
PG04   7700.154239 -14168.388545 -21072.056482     77.911810  6  5  3  57       
PG05 -26192.194646   4728.994077   -818.285883   -132.455394  7  2  5  85       
PG06  -8336.225737 -14974.149431 -20204.421747    582.960258  7  4  4  69       
PG07   4644.253928 -25125.440014   6712.306423    142.861344  4  3  3  85       
PG08  16407.524552  -3122.566005  20662.435666   -129.070613  6  3  5  49       
PG09  -2062.001450 -20650.301058 -16624.117309   -127.530103  6  4     53       
PG10  12621.518385  11882.237930  20391.152631    -42.601361  8  8  8  90       
PG11 -16186.017362    535.752658 -21037.297425   -249.598691  8  4  7  71       
PG12 -21334.048727  10284.987456 -12214.875900   -392.913554  6     5 120       
PG13 -18225.057000  -6086.155932  18248.197596    538.708090  5  6  5  70       
PG14  -9039.768618 -13903.603753  20792.842621    101.959845  4  5  6  77       
PG15 -15748.044223   5768.944755  20184.114730     52.094848  5  5  6  68       
PG16  26488.089948   1188.441276  -4234.203683   -487.833877  5  4  4  73       
PG17 -13319.423350 -22726.987357   3328.950401    719.407759  4  3  5 101       
PG18  -3398.000923  24637.075097   9087.804715   -321.278627  4  5  3  93       
PG19 -17075.184321 -19940.248509  -5249.627212    335.298229  8  4  5 103       
PG20 -24279.763968    184.854169 -10504.716434    426.110196  9  4  3  97       
PG21  15971.489409 -13057.213347  16754.654881    152.798466  4  3  4  59       
PG22  18185.326639  17880.586125  -7245.073445    503.272347 10  7  5  81       
PG23  -1252.556270  15220.728966  21717.606842     36.617356  5  7  5  79       
PG24 -14593.632794  18019.426684  12203.276456   -236.761070  7  6  4  99       
PG25  -9498.340916  15633.456145 -19477.943073    452.084278  6  3  4  86       
PG26  21411.299944   6336.385027 -14752.380724    238.210365  6  2  5  46       
PG27  20265.857976   8785.158477  14791.109543      9.545611  6  1  2  74       
PG28   8199.718433  16725.278370 -18955.993224     83.623893  6  5  7  71       
PG29  -1182.974917  19620.712167 -17871.784833   -603.846245  6  5  2  96       
PG30  -2995.309812 -21868.093223  14696.300200   -508.720364  3  4  3  85       
PG31  14678.975712   4893.692008 -21770.531773   -218.857714  3     1  43       
PG32  16338.449962  21061.720447   1034.540187   -507.845190  4  4  6  89       
*  2023  6 25 11 30  0.00000000
PG01  13911.161913 -19529.312108  10691.576320    176.299518  4  5  2  81       
PG02  15050.828172 -14759.495582  16570.409368   -582.449058  5  3  4  84       
PG03  19788.729834 -12815.991143 -12248.366588   -257.578100  6  7  7  14       
PG04   9271.621998 -12293.037675 -21619.514323     77.921298  5  5  4  69       
PG05 -26015.155344   4452.865457  -3664.008550   -132.456289  8  2  6  86       
PG06  -7493.137939 -17052.974339 -18836.722296    582.957967  7  4  4  74       
PG07   5123.988559 -25556.819698   3938.332089    142.851918  5  3  3  95       
PG08  17903.235550  -1359.083930  19623.516067   -129.071698  6  3  5  50       
PG09   -612.722913 -19279.048934 -18313.006118   -127.522043  6  5     57       
PG10  10332.795675  12370.568187  21347.030332    -42.602300  8  8  8  97       
PG11 -15311.892669  -1744.429016 -21621.696310   -249.612604  8  4  7  87       
PG12 -22570.606038  10220.017385  -9732.453111   -392.918193  7     5 118       
PG13 -19203.845575  -7849.286012  16524.567205    538.712406  6  6  5  82       
PG14  -6666.392675 -14331.505385  21376.689598    101.970945  5  5  6  72       
PG15 -17441.951211   4136.273436  19213.873615     52.097924  5  5  7  96       
PG16  25912.251182   1444.321245  -6977.822721   -487.830198  4  4  5  78       
PG17 -12848.109772 -22463.552894   6149.369223    719.409151  4  4  5  96       
PG18  -3909.432480  25394.564843   6383.306633   -321.291942  4  5  3  97       
PG19 -17150.875592 -20386.772153  -2432.260800    335.302849  7  4  5  96       
PG20 -23101.459582   -525.483607 -12890.393268    426.108422 10  4  5  97       
PG21  15665.569094 -11120.035727  18487.163065    152.798114  4  2  3  62       
PG22  18418.210601  18603.285336  -4500.738690    503.277501 10  7  5  60       
PG23  -3654.182942  15692.516971  21087.685026     36.620793  5  7  4  95       
PG24 -14487.268207  16399.353942  14395.605751   -236.772644  7  6  4 114       
PG25 -11584.234950  15906.072515 -18028.737914    452.086534  6  3  5 104       
PG26  19748.037043   6981.086363 -16642.818256    238.209494  6  3  5  59       
PG27  21181.988730  10093.753271  12578.617534      9.538893  5  2  1  83       
PG28   7449.736884  18665.501413 -17388.166017     83.623950  6  5  7  76       
PG29  -2534.134169  17980.402459 -19404.430483   -603.847397  6  5  1  99       
PG30  -2218.845403 -23242.244944  12525.484573   -508.718085  3  5  4  83       
PG31  13794.555733   7180.785927 -21676.186082   -218.858313  3     2  75       
PG32  15987.258247  21025.626368   3858.986162   -507.852539  4  4  6  95       
*  2023  6 25 11 45  0.00000000
PG01  13674.356098 -18117.536067  13155.310860    176.297507  4  4  3  84       
PG02  14827.514930 -12854.583530  18332.675820   -582.445414  5  3  4  86       
PG03  21034.697501 -12950.765989  -9734.928584   -257.565473  6  7  7  58       
PG04  10965.804054 -10472.986570 -21794.218538     77.930782  5  5  4  70       
PG05 -25548.872029   4077.607514  -6447.293687   -132.458085  8  2  6 119       
PG06  -6817.354664 -19008.881732 -17142.346714    582.955569  7  3  4  82       
PG07   5497.406147 -25703.782542   1095.081374    142.842608  5  3  3  97       
PG08  19388.922552    225.945915  18248.346818   -129.073655  7  4  5  87       
PG09   1027.626544 -17863.026632 -19688.085888   -127.513956  6  5  1  61       
PG10   7988.247399  13007.974274  21943.280910    -42.603548  7  8  7 100       
PG11 -14544.930528  -4109.896723 -21833.706093   -249.626475  8  4  7  95       
PG12 -23525.584360  10168.128407  -7083.665899   -392.922094  7     5 122       
PG13 -20149.717527  -9383.899568  14515.353572    538.717282  6  6  5  93       
PG14  -4271.901983 -14888.227589  21593.763037    101.981984  5  6  5  71       
PG15 -19104.415198   2668.373415  17902.235831     52.100984  5  5  7  99       
PG16  25055.443250   1776.557232  -9605.509878   -487.826373  4  4  5  70       
PG17 -12162.983747 -21987.351290   8864.448446    719.410074  5  5  6  92       
PG18  -4288.104364  25877.957067   3567.882754   -321.305200  4  5  4 106       
PG19 -17053.068845 -20578.626486    426.055696    335.307519  7  3  5 101       
PG20 -21723.892813  -1396.909824 -15051.701145    426.106563  9  5  6  98       
PG21  15426.511618  -9005.379565  19905.187572    152.798062  5  2  3  87       
PG22  18490.877330  19065.466433  -1678.912935    503.282814 10  7  6  79       
PG23  -5939.524150  16268.853674  20094.031840     36.624214  5  6  3  95       
PG24 -14411.435422  14543.261003  16329.643055   -236.784198  7  6  4 104       
PG25 -13483.393387  16238.885878 -16273.719104    452.088798  6  4  5 105       
PG26  17930.773680   7766.854819 -18252.965022    238.208622  5  3  6  77       
PG27  21982.927153  11160.251490  10151.140224      9.532180  6  3  2  96       
PG28   6848.718521  20453.768825 -15521.624516     83.624035  6  6  6  83       
PG29  -4070.998830  16298.002772 -20603.743748   -603.848353  5  6  1  88       
PG30  -1580.227107 -24405.959766  10137.541568   -508.715788  4  5  4  99       
PG31  13036.700668   9484.593546 -21213.769221   -218.858871  4     2  78       
PG32  15415.172051  20783.749885   6618.018569   -507.859917  4  4  6 108       
EOF
